<html>
  <head>
    <link rel="shortcut icon" href="static/tab.ico">
  </head>
  <body>
 KBFI 191453Z 19008KT 10SM FEW015 SCT048 OVC070 08/07 A2982 RMK AO2 SLP099 60011 T00780067 53009
  </body>
</html>
